{
  "type": "FeatureCollection",
  "features": [
    {
      "type": "Feature",
      "properties": {
        "norad_id": 15362,
        "name": "NOVA 3",
        "group": "nnss",
        "lat": 72.90907684512128,
        "lon": -98.9720331162839,
        "alt_km": 1187.262345523527,
        "timestamp": "2025-12-20T20:38:44.711299+00:00",
        "meta_object_name": "NOVA 3",
        "meta_object_id": "1984-110A",
        "meta_epoch": "2025-12-20T12:54:10.718784",
        "meta_mean_motion": 13.23045457,
        "meta_eccentricity": 0.00299901,
        "meta_inclination": 90.1222,
        "meta_ra_of_asc_node": 80.6265,
        "meta_arg_of_pericenter": 309.5583,
        "meta_mean_anomaly": 61.6582,
        "meta_ephemeris_type": 0,
        "meta_classification_type": "U",
        "meta_norad_cat_id": 15362,
        "meta_element_set_no": 999,
        "meta_rev_at_epoch": 98802,
        "meta_bstar": 0.00010787093,
        "meta_mean_motion_dot": 5.4e-07,
        "meta_mean_motion_ddot": 0,
        "tle_line1": "1 15362U 84110A   25354.53762406  .00000054  00000+0  10787-3 0  9997",
        "tle_line2": "2 15362  90.1222  80.6265 0029990 309.5583  61.6582 13.23045457988023"
      },
      "geometry": {
        "type": "Point",
        "coordinates": [
          -98.9720331162839,
          72.90907684512128
        ]
      }
    },
    {
      "type": "Feature",
      "properties": {
        "norad_id": 15935,
        "name": "OSCAR 30",
        "group": "nnss",
        "lat": -29.34852525490424,
        "lon": -80.11315004143526,
        "alt_km": 1236.897734455787,
        "timestamp": "2025-12-20T20:38:44.711310+00:00",
        "meta_object_name": "OSCAR 30",
        "meta_object_id": "1985-066A",
        "meta_epoch": "2025-12-20T07:17:41.512416",
        "meta_mean_motion": 13.36079379,
        "meta_eccentricity": 0.01691863,
        "meta_inclination": 90.1655,
        "meta_ra_of_asc_node": 99.9709,
        "meta_arg_of_pericenter": 62.7881,
        "meta_mean_anomaly": 351.3123,
        "meta_ephemeris_type": 0,
        "meta_classification_type": "U",
        "meta_norad_cat_id": 15935,
        "meta_element_set_no": 999,
        "meta_rev_at_epoch": 96554,
        "meta_bstar": 0.00010294684,
        "meta_mean_motion_dot": 6.7e-07,
        "meta_mean_motion_ddot": 0,
        "tle_line1": "1 15935U 85066A   25354.30395269  .00000067  00000+0  10295-3 0  9996",
        "tle_line2": "2 15935  90.1655  99.9709 0169186  62.7881 351.3123 13.36079379965542"
      },
      "geometry": {
        "type": "Point",
        "coordinates": [
          -80.11315004143526,
          -29.34852525490424
        ]
      }
    },
    {
      "type": "Feature",
      "properties": {
        "norad_id": 15936,
        "name": "OSCAR 24",
        "group": "nnss",
        "lat": -81.63843604676487,
        "lon": 93.66836794011486,
        "alt_km": 1241.2151549003338,
        "timestamp": "2025-12-20T20:38:44.711320+00:00",
        "meta_object_name": "OSCAR 24",
        "meta_object_id": "1985-066B",
        "meta_epoch": "2025-12-20T13:55:25.049856",
        "meta_mean_motion": 13.35936778,
        "meta_eccentricity": 0.01702986,
        "meta_inclination": 90.1791,
        "meta_ra_of_asc_node": 92.4441,
        "meta_arg_of_pericenter": 68.4534,
        "meta_mean_anomaly": 304.6719,
        "meta_ephemeris_type": 0,
        "meta_classification_type": "U",
        "meta_norad_cat_id": 15936,
        "meta_element_set_no": 999,
        "meta_rev_at_epoch": 96748,
        "meta_bstar": 9.6657407e-05,
        "meta_mean_motion_dot": 6.4e-07,
        "meta_mean_motion_ddot": 0,
        "tle_line1": "1 15936U 85066B   25354.58015104  .00000064  00000+0  96657-4 0  9998",
        "tle_line2": "2 15936  90.1791  92.4441 0170298  68.4534 304.6719 13.35936778967480"
      },
      "geometry": {
        "type": "Point",
        "coordinates": [
          93.66836794011486,
          -81.63843604676487
        ]
      }
    },
    {
      "type": "Feature",
      "properties": {
        "norad_id": 17070,
        "name": "POLAR BEAR",
        "group": "nnss",
        "lat": -3.7574559137572834,
        "lon": 3.473643835627851,
        "alt_km": 982.963940376153,
        "timestamp": "2025-12-20T20:38:44.711330+00:00",
        "meta_object_name": "POLAR BEAR",
        "meta_object_id": "1986-088A",
        "meta_epoch": "2025-12-20T12:53:27.637152",
        "meta_mean_motion": 13.75252346,
        "meta_eccentricity": 0.00412756,
        "meta_inclination": 89.617,
        "meta_ra_of_asc_node": 183.4615,
        "meta_arg_of_pericenter": 96.7897,
        "meta_mean_anomaly": 287.644,
        "meta_ephemeris_type": 0,
        "meta_classification_type": "U",
        "meta_norad_cat_id": 17070,
        "meta_element_set_no": 999,
        "meta_rev_at_epoch": 96086,
        "meta_bstar": 8.7122137e-05,
        "meta_mean_motion_dot": 9.6e-07,
        "meta_mean_motion_ddot": 0,
        "tle_line1": "1 17070U 86088A   25354.53712543  .00000096  00000+0  87122-4 0  9992",
        "tle_line2": "2 17070  89.6170 183.4615 0041275  96.7897 287.6440 13.75252346960869"
      },
      "geometry": {
        "type": "Point",
        "coordinates": [
          3.473643835627851,
          -3.7574559137572834
        ]
      }
    },
    {
      "type": "Feature",
      "properties": {
        "norad_id": 18361,
        "name": "OSCAR 27",
        "group": "nnss",
        "lat": -84.07777940997312,
        "lon": 83.18607102272844,
        "alt_km": 1078.4689260223358,
        "timestamp": "2025-12-20T20:38:44.711341+00:00",
        "meta_object_name": "OSCAR 27",
        "meta_object_id": "1987-080A",
        "meta_epoch": "2025-12-20T12:08:20.550624",
        "meta_mean_motion": 13.44908172,
        "meta_eccentricity": 0.01035438,
        "meta_inclination": 90.374,
        "meta_ra_of_asc_node": 79.5628,
        "meta_arg_of_pericenter": 201.3956,
        "meta_mean_anomaly": 158.2848,
        "meta_ephemeris_type": 0,
        "meta_classification_type": "U",
        "meta_norad_cat_id": 18361,
        "meta_element_set_no": 999,
        "meta_rev_at_epoch": 87661,
        "meta_bstar": 0.00014658613,
        "meta_mean_motion_dot": 9.7e-07,
        "meta_mean_motion_ddot": 0,
        "tle_line1": "1 18361U 87080A   25354.50579341  .00000097  00000+0  14659-3 0  9998",
        "tle_line2": "2 18361  90.3740  79.5628 0103543 201.3956 158.2848 13.44908172876616"
      },
      "geometry": {
        "type": "Point",
        "coordinates": [
          83.18607102272844,
          -84.07777940997312
        ]
      }
    },
    {
      "type": "Feature",
      "properties": {
        "norad_id": 18362,
        "name": "OSCAR 29",
        "group": "nnss",
        "lat": -85.48216331894245,
        "lon": 84.79113253872471,
        "alt_km": 1050.5199375794882,
        "timestamp": "2025-12-20T20:38:44.711351+00:00",
        "meta_object_name": "OSCAR 29",
        "meta_object_id": "1987-080B",
        "meta_epoch": "2025-12-20T12:11:35.668608",
        "meta_mean_motion": 13.44449676,
        "meta_eccentricity": 0.01043987,
        "meta_inclination": 90.3751,
        "meta_ra_of_asc_node": 80.0224,
        "meta_arg_of_pericenter": 224.6444,
        "meta_mean_anomaly": 145.356,
        "meta_ephemeris_type": 0,
        "meta_classification_type": "U",
        "meta_norad_cat_id": 18362,
        "meta_element_set_no": 999,
        "meta_rev_at_epoch": 87614,
        "meta_bstar": 0.00012855093,
        "meta_mean_motion_dot": 8.5e-07,
        "meta_mean_motion_ddot": 0,
        "tle_line1": "1 18362U 87080B   25354.50805172  .00000085  00000+0  12855-3 0  9996",
        "tle_line2": "2 18362  90.3751  80.0224 0104398 224.6444 145.3560 13.44449676876142"
      },
      "geometry": {
        "type": "Point",
        "coordinates": [
          84.79113253872471,
          -85.48216331894245
        ]
      }
    },
    {
      "type": "Feature",
      "properties": {
        "norad_id": 19070,
        "name": "OSCAR 23",
        "group": "nnss",
        "lat": -75.73676355877288,
        "lon": 17.90540187368076,
        "alt_km": 1246.8508730341555,
        "timestamp": "2025-12-20T20:38:44.711375+00:00",
        "meta_object_name": "OSCAR 23",
        "meta_object_id": "1988-033A",
        "meta_epoch": "2025-12-20T14:23:51.322848",
        "meta_mean_motion": 13.27788452,
        "meta_eccentricity": 0.01901778,
        "meta_inclination": 90.3204,
        "meta_ra_of_asc_node": 16.6361,
        "meta_arg_of_pericenter": 158.1011,
        "meta_mean_anomaly": 320.7202,
        "meta_ephemeris_type": 0,
        "meta_classification_type": "U",
        "meta_norad_cat_id": 19070,
        "meta_element_set_no": 999,
        "meta_rev_at_epoch": 82357,
        "meta_bstar": 0.00014595321,
        "meta_mean_motion_dot": 8.2e-07,
        "meta_mean_motion_ddot": 0,
        "tle_line1": "1 19070U 88033A   25354.59989957  .00000082  00000+0  14595-3 0  9995",
        "tle_line2": "2 19070  90.3204  16.6361 0190177 158.1011 320.7202 13.27788452823570"
      },
      "geometry": {
        "type": "Point",
        "coordinates": [
          17.90540187368076,
          -75.73676355877288
        ]
      }
    }
  ]
}